[{"OBJECT_NAME":"SCS-01 H","OBJECT_ID":"2025-100H","EPOCH":"2026-03-09T23:19:05.376864","MEAN_MOTION":15.31767757,"ECCENTRICITY":0.00071581,"INCLINATION":97.3749,"RA_OF_ASC_NODE":145.8085,"ARG_OF_PERICENTER":277.8492,"MEAN_ANOMALY":82.1937,"EPHEMERIS_TYPE":0,"CLASSIFICATION_TYPE":"U","NORAD_CAT_ID":63989,"ELEMENT_SET_NO":999,"REV_AT_EPOCH":4566,"BSTAR":0.0011436254,"MEAN_MOTION_DOT":0.00035149,"MEAN_MOTION_DDOT":0},{"OBJECT_NAME":"STARLINK-35061","OBJECT_ID":"2025-243Q","EPOCH":"2026-03-09T17:10:22.557504","MEAN_MOTION":15.30196379,"ECCENTRICITY":8.279e-5,"INCLINATION":53.1572,"RA_OF_ASC_NODE":245.424,"ARG_OF_PERICENTER":81.8584,"MEAN_ANOMALY":278.2511,"EPHEMERIS_TYPE":0,"CLASSIFICATION_TYPE":"U","NORAD_CAT_ID":66191,"ELEMENT_SET_NO":999,"REV_AT_EPOCH":2065,"BSTAR":0.00059072148,"MEAN_MOTION_DOT":0.00017175,"MEAN_MOTION_DDOT":0}]
